SL-8 R/B                
1 15483U 85006B   26160.30332490  .00000213  00000+0  79368-4 0  9991
2 15483  74.0457  92.5712 0018587 341.0891 135.7605 14.37831483167194
SL-12 R/B(2)            
1 15772U 85042D   26160.28409701 -.00000006  00000+0  18605-4 0  9997
2 15772  71.1084 254.2131 0035850 339.7933  84.0329 14.22004532127415
SL-14 R/B               
1 15945U 85069B   26159.88965818  .00000444  00000+0  47385-4 0  9990
2 15945  82.5265 299.1700 0017341 248.6030 111.3337 14.86509191186380
SL-16 R/B               
1 16182U 85097B   26160.16991618 -.00000116  00000+0 -34219-4 0  9995
2 16182  71.0038 307.9568 0005571 127.6202  49.3224 14.16612236100181
SL-14 R/B               
1 16496U 86006B   26160.31281020  .00000536  00000+0  54242-4 0  9992
2 16496  82.5260 173.5236 0075532 329.9785  29.7110 14.86937530162828
COSMOS 1743             
1 16719U 86034A   26159.97067834  .00044227  00000+0  42820-3 0  9999
2 16719  82.5284 337.4647 0003533 310.3752  49.7199 15.66203177194500
SL-14 R/B               
1 16792U 86046B   26160.00336879  .00000338  00000+0  36156-4 0  9998
2 16792  82.4817 353.9095 0021622 287.4085  72.4767 14.85665397139963
SL-14 R/B               
1 16882U 86055B   26160.20897647  .00000356  00000+0  38080-4 0  9993
2 16882  82.5210  40.6340 0019744  33.3832  86.6128 14.85717559132952
AJISAI (EGS)            
1 16908U 86061A   26160.29004630 -.00000081  00000+0  11548-3 0  9995
2 16908  50.0060 171.6793 0011258 160.5378  19.3957 12.44516749479409
SL-14 R/B               
1 17567U 87024B   26160.07094701  .00000330  00000+0  34718-4 0  9992
2 17567  82.5282   6.8801 0017273 322.0964  37.9036 14.86207750101701
COSMOS 1833             
1 17589U 87027A   26160.17982975  .00000318  00000+0  19530-3 0  9999
2 17589  70.9160 133.6998 0022593  68.3312 292.0212 14.13043947 23243
SL-16 R/B               
1 17590U 87027B   26160.24011486  .00000121  00000+0  83742-4 0  9998
2 17590  71.0032  83.5748 0006137 321.7585  38.3103 14.17172158 28319
SL-14 R/B               
1 17912U 87038B   26160.11285945  .00000288  00000+0  30582-4 0  9995
2 17912  82.5014 210.6777 0018229 218.8474 141.1433 14.85440406 92800
COSMOS 1844             
1 17973U 87041A   26160.18717005 -.00000166  00000+0 -61003-4 0  9999
2 17973  70.8981 201.1822 0033230 247.0838 112.6775 14.14569625 16527
SL-14 R/B               
1 18153U 87055B   26160.27586789  .00000380  00000+0  40780-4 0  9993
2 18153  82.4996 262.6865 0022051  72.2670 288.0951 14.85705410 83534
COSMOS 1867             
1 18187U 87060A   26160.16907839 -.00000054  00000+0  17546-4 0  9990
2 18187  65.0116  50.5142 0016345 282.0745  77.8508 14.31514952 33039
SL-14 R/B               
1 18749U 88001B   26160.27732298  .00000414  00000+0  44938-4 0  9991
2 18749  82.5126 109.2148 0016630 298.1513  61.8022 14.85603810 55628
COSMOS 1933             
1 18958U 88020A   26160.26270184  .00003057  00000+0  14610-3 0  9993
2 18958  82.5123 160.2827 0002724 219.1249 140.9788 15.18664332 64122
SL-3 R/B                
1 19046U 88032B   26160.21596882  .00003657  00000+0  16805-3 0  9990
2 19046  97.5251 143.2652 0023655 274.9864  84.8671 15.20780401 66010
SL-16 R/B               
1 19120U 88039B   26160.29956020  .00000051  00000+0  46636-4 0  9993
2 19120  71.0147 234.8367 0022666 204.8032 155.2005 14.19629342971386
COSMOS 1953             
1 19210U 88050A   26159.77770826  .00007630  00000+0  26229-3 0  9990
2 19210  82.5077  66.5128 0011446 152.4135 207.7715 15.29860438 51707
SL-8 R/B                
1 19257U 88053B   26160.17201189  .00000207  00000+0  75443-4 0  9997
2 19257  74.0478 303.8321 0019199 102.1001  75.3328 14.38964536989755
COSMOS 1975             
1 19573U 88093A   26160.10613157  .00006472  00000+0  22680-3 0  9991
2 19573  82.5202  25.8306 0010566 200.0736 160.0090 15.29222007 33378
SL-14 R/B               
1 19574U 88093B   26159.93176918  .00000464  00000+0  50402-4 0  9999
2 19574  82.5305 316.3958 0022192  95.8907  20.0337 14.85735572 14568
SL-16 R/B               
1 19650U 88102B   26160.16483586 -.00000117  00000+0 -34876-4 0  9998
2 19650  71.0005 319.0195 0016086 236.5759 123.3827 14.16166575939843
INTERCOSMOS 24          
1 20261U 89080A   26160.07414556  .00000791  00000+0  22345-3 0  9998
2 20261  82.6074  44.9233 1188373  80.7132 292.6115 12.59648411678308
SL-14 R/B               
1 20262U 89080C   26160.16267452  .00000399  00000+0  11886-3 0  9992
2 20262  82.5922 114.4627 1229206 335.7628  19.0014 12.50565573671584
DELTA 1 R/B             
1 20323U 89089B   26160.28736651  .00000298  00000+0  82394-4 0  9995
2 20323  97.0640 353.1098 0068548 191.9141 168.0439 14.50725980909015
ARIANE 40 R/B           
1 20443U 90005H   26160.12301589  .00000215  00000+0  81769-4 0  9993
2 20443  98.2962 217.9894 0008852 292.2424  67.7826 14.39923193905968
DELTA 2 R/B(1)          
1 20453U 90008B   26160.04191368  .00066682  00000+0  51791-3 0  9991
2 20453  35.6033 290.1009 0067007  36.7622 323.7688 15.67552285940425
