OBJECT_NAME,OBJECT_ID,EPOCH,MEAN_MOTION,ECCENTRICITY,INCLINATION,RA_OF_ASC_NODE,ARG_OF_PERICENTER,MEAN_ANOMALY,EPHEMERIS_TYPE,CLASSIFICATION_TYPE,NORAD_CAT_ID,ELEMENT_SET_NO,REV_AT_EPOCH,BSTAR,MEAN_MOTION_DOT,MEAN_MOTION_DDOT
SL-8 R/B,1985-006B,2026-06-09T07:16:47.271360,14.37831483,.00185872,74.0457,92.5712,341.0891,135.7605,0,U,15483,999,16719,.79368278E-4,.213E-5,0
SL-12 R/B(2),1985-042D,2026-06-09T06:49:05.981664,14.22004532,.00358509,71.1084,254.2131,339.7933,84.0329,0,U,15772,999,12741,.18605169E-4,-.6E-7,0
SL-14 R/B,1985-069B,2026-06-08T21:21:06.466752,14.86509191,.00173411,82.5265,299.1700,248.6030,111.3337,0,U,15945,999,18638,.47385308E-4,.444E-5,0
SL-16 R/B,1985-097B,2026-06-09T04:04:40.757952,14.16612236,.00055718,71.0038,307.9568,127.6202,49.3224,0,U,16182,999,10018,-.34219398E-4,-.116E-5,0
SL-14 R/B,1986-006B,2026-06-09T07:30:26.801280,14.86937530,.00755325,82.5260,173.5236,329.9785,29.7110,0,U,16496,999,16282,.54242103E-4,.536E-5,0
COSMOS 1743,1986-034A,2026-06-08T23:17:46.608576,15.66203177,.00035333,82.5284,337.4647,310.3752,49.7199,0,U,16719,999,19450,.42819579E-3,.44227E-3,0
SL-14 R/B,1986-046B,2026-06-09T00:04:51.063456,14.85665397,.00216222,82.4817,353.9095,287.4085,72.4767,0,U,16792,999,13996,.36155813E-4,.338E-5,0
SL-14 R/B,1986-055B,2026-06-09T05:00:55.567008,14.85717559,.00197443,82.5210,40.6340,33.3832,86.6128,0,U,16882,999,13295,.38079715E-4,.356E-5,0
AJISAI (EGS),1986-061A,2026-06-09T06:57:40.000320,12.44516749,.00112588,50.0060,171.6793,160.5378,19.3957,0,U,16908,999,47940,.11547677E-3,-.81E-6,0
SL-14 R/B,1987-024B,2026-06-09T01:42:09.821664,14.86207750,.0017273,82.5282,6.8801,322.0964,37.9036,0,U,17567,999,10170,.34718422E-4,.33E-5,0
COSMOS 1833,1987-027A,2026-06-09T04:18:57.290400,14.13043947,.00225931,70.9160,133.6998,68.3312,292.0212,0,U,17589,999,2324,.1953032E-3,.318E-5,0
SL-16 R/B,1987-027B,2026-06-09T05:45:45.923904,14.17172158,.00061378,71.0032,83.5748,321.7585,38.3103,0,U,17590,999,2831,.83742205E-4,.121E-5,0
SL-14 R/B,1987-038B,2026-06-09T02:42:31.056480,14.85440406,.00182297,82.5014,210.6777,218.8474,141.1433,0,U,17912,999,9280,.30581756E-4,.288E-5,0
COSMOS 1844,1987-041A,2026-06-09T04:29:31.492320,14.14569625,.00332309,70.8981,201.1822,247.0838,112.6775,0,U,17973,999,1652,-.61002509E-4,-.166E-5,0
SL-14 R/B,1987-055B,2026-06-09T06:37:14.985696,14.85705410,.00220518,82.4996,262.6865,72.2670,288.0951,0,U,18153,999,8353,.40780317E-4,.38E-5,0
COSMOS 1867,1987-060A,2026-06-09T04:03:28.372896,14.31514952,.0016345,65.0116,50.5142,282.0745,77.8508,0,U,18187,999,3303,.17545581E-4,-.54E-6,0
SL-14 R/B,1988-001B,2026-06-09T06:39:20.705472,14.85603810,.00166305,82.5126,109.2148,298.1513,61.8022,0,U,18749,999,5562,.44937999E-4,.414E-5,0
COSMOS 1933,1988-020A,2026-06-09T06:18:17.438976,15.18664332,.00027242,82.5123,160.2827,219.1249,140.9788,0,U,18958,999,6412,.14610325E-3,.3057E-4,0
SL-3 R/B,1988-032B,2026-06-09T05:10:59.706048,15.20780401,.00236555,97.5251,143.2652,274.9864,84.8671,0,U,19046,999,6601,.16805019E-3,.3657E-4,0
SL-16 R/B,1988-039B,2026-06-09T07:11:22.001280,14.19629342,.00226662,71.0147,234.8367,204.8032,155.2005,0,U,19120,999,97138,.46636359E-4,.51E-6,0
COSMOS 1953,1988-050A,2026-06-08T18:39:53.993664,15.29860438,.00114463,82.5077,66.5128,152.4135,207.7715,0,U,19210,999,5170,.26229463E-3,.763E-4,0
SL-8 R/B,1988-053B,2026-06-09T04:07:41.827296,14.38964536,.00191994,74.0478,303.8321,102.1001,75.3328,0,U,19257,999,98975,.75443163E-4,.207E-5,0
COSMOS 1975,1988-093A,2026-06-09T02:32:49.767648,15.29222007,.00105663,82.5202,25.8306,200.0736,160.0090,0,U,19573,999,3337,.22680065E-3,.6472E-4,0
SL-14 R/B,1988-093B,2026-06-08T22:21:44.857152,14.85735572,.00221924,82.5305,316.3958,95.8907,20.0337,0,U,19574,999,1456,.50402072E-4,.464E-5,0
SL-16 R/B,1988-102B,2026-06-09T03:57:21.818304,14.16166575,.00160869,71.0005,319.0195,236.5759,123.3827,0,U,19650,999,93984,-.34875749E-4,-.117E-5,0
INTERCOSMOS 24,1989-080A,2026-06-09T01:46:46.176384,12.59648411,.11883735,82.6074,44.9233,80.7132,292.6115,0,U,20261,999,67830,.22344632E-3,.791E-5,0
SL-14 R/B,1989-080C,2026-06-09T03:54:15.078528,12.50565573,.12292065,82.5922,114.4627,335.7628,19.0014,0,U,20262,999,67158,.11885797E-3,.399E-5,0
DELTA 1 R/B,1989-089B,2026-06-09T06:53:48.466464,14.50725980,.00685484,97.0640,353.1098,191.9141,168.0439,0,U,20323,999,90901,.82394461E-4,.298E-5,0
ARIANE 40 R/B,1990-005H,2026-06-09T02:57:08.572896,14.39923193,.00088522,98.2962,217.9894,292.2424,67.7826,0,U,20443,999,90596,.81769145E-4,.215E-5,0
DELTA 2 R/B(1),1990-008B,2026-06-09T01:00:21.341952,15.67552285,.00670071,35.6033,290.1009,36.7622,323.7688,0,U,20453,999,94042,.51791352E-3,.66682E-3,0
